[{"OBJECT_NAME":"GAOFEN-5 02","OBJECT_ID":"2021-079A","EPOCH":"2026-03-09T22:28:30.715104","MEAN_MOTION":14.5772301,"ECCENTRICITY":3.379e-5,"INCLINATION":98.2675,"RA_OF_ASC_NODE":143.9335,"ARG_OF_PERICENTER":339.1436,"MEAN_ANOMALY":20.9749,"EPHEMERIS_TYPE":0,"CLASSIFICATION_TYPE":"U","NORAD_CAT_ID":49122,"ELEMENT_SET_NO":999,"REV_AT_EPOCH":23962,"BSTAR":9.830729e-5,"MEAN_MOTION_DOT":4.03e-6,"MEAN_MOTION_DDOT":0},{"OBJECT_NAME":"PSLV DEB","OBJECT_ID":"2001-049NS","EPOCH":"2026-03-09T05:19:14.224224","MEAN_MOTION":14.71401718,"ECCENTRICITY":0.01105498,"INCLINATION":97.2875,"RA_OF_ASC_NODE":339.6277,"ARG_OF_PERICENTER":290.8563,"MEAN_ANOMALY":68.0836,"EPHEMERIS_TYPE":0,"CLASSIFICATION_TYPE":"U","NORAD_CAT_ID":27655,"ELEMENT_SET_NO":999,"REV_AT_EPOCH":24688,"BSTAR":0.0017183831,"MEAN_MOTION_DOT":0.00011673,"MEAN_MOTION_DDOT":0}]
